#dP2018  5 29  0  0  0.00000000      96 __u+U IGS08 FIT  IAC
## 2003 172800.00000000   900.00000000 58267 0.0000000000000
+   87   C01C02C03C04C05C06C07C08C09C10C11C12C13C14E01E02E03
+        E04E05E07E08E09E11E12E14E18E19E24E26E30G01G02G03G05
+        G06G07G08G09G10G11G12G13G14G15G16G17G18G19G20G21G22
+        G23G24G25G26G27G28G29G30G31G32J01J02J03R01R02R03R04
+        R05R07R08R09R10R11R13R14R15R16R17R18R19R20R21R22R23
+        R24R26  0  0  0  0  0  0  0  0  0  0  0  0  0  0  0
++        13 12 12 12 12  8  8  8  8  7  7  7  8  8  7  7  7
++         7  7  7  7  7  7  7  8  7  7  7  7  7  3  3  3  3
++         3  3  3  3  3  3  3  3  3  3  3  3  3  3  3  3  3
++         3  3  3  3  3  3  3  3  3  3  9 12 12  5  5  5  5
++         6  5  5  5  7  5  5  5  5  5  5  5  5  5  5  5  5
++         7  8  0  0  0  0  0  0  0  0  0  0  0  0  0  0  0
%c M  cc GPS ccc cccc cccc cccc cccc ccccc ccccc ccccc ccccc
%c cc cc ccc ccc cccc cccc cccc cccc ccccc ccccc ccccc ccccc
%f  1.2500000  1.025000000  0.00000000000  0.000000000000000
%f  0.0000000  0.000000000  0.00000000000  0.000000000000000
%i    0    0    0    0      0      0      0      0         0
%i    0    0    0    0      0      0      0      0         0
/* INFORMATION & ANALYSIS CENTER (IAC)            FINAL DATA
/* S/V CLOCKS ARE ALIGNED TO GPS & GLONASS TIME RESPECTIVELY
/* USING THE BROADCAST EPHEMERIS                            
/* PCV:IGS14_2000 OL/AL:FES2004  NONE     YN ORB:CoN CLK:CoN
*  2018 05 29 12 45  0.00000000
PC01 -32297.152294  27088.265388   -672.944279 999999.999999
PC02   4353.891108  41918.134392   1315.766698    401.361858
PC03 -14800.898224  39526.696976    124.346510   -252.114889
PC04 -39607.737160  14450.420964    -92.600893   -242.430288
PC05  21889.958693  36032.854781    990.888169    397.718324
PC06 -18567.945775  37843.001936   4244.846535     34.647471
PC07  -9358.509420  26009.117457 -31618.194867    130.401488
PC08 -23376.371034  21116.730710  27981.097648    363.660496
PC09  -9161.292137  39714.421195 -11233.930956    -85.949926
PC10   6372.834277  34187.310771 -23498.204509   -268.561830
PC11 -20669.409131  18225.955982   4209.374497   -527.648400
PC12 -23410.812388   5610.062124 -13987.544234    459.035847
PC13  -8205.883965  24235.288651  33479.611007   -352.634555
PC14 -11093.100782  17757.491349  18537.753971    377.145713
PE01 -22378.374635 -19163.411510  -2902.806572   -355.917156
PE02  22380.683278  19153.258996   2914.978291     14.829260
PE03  12475.856056  14997.423620 -22249.182296    -37.501669
PE04 -18197.779546   6846.015543  22332.130308    -44.106784
PE05   -584.109908  28149.944346  -9126.545302    256.128702
PE07  13241.701876 -24796.386354  -9266.585666     24.629600
PE08  17991.877423  -7052.262158 -22412.191708   6574.989126
PE09 -12992.998569  24883.950956   9384.722114   6778.360397
PE11 -19628.598679  16231.009468  15098.915664    497.192117
PE12 -28810.416013   5886.225490  -3500.951078   4263.802980
PE14  -5931.225289  21541.146658  12232.559687   6575.360455
PE18  -6025.217529 -20915.138333 -22676.622399   6172.621371
PE19 -11422.675611 -16712.493551  21604.776232     22.708106
PE24  -8644.393715  14089.530616 -24570.097585   6681.319294
PE26   -464.453634 -16942.685668 -24265.036261   5883.028044
PE30  21950.828256   3622.973183  19512.789841   5801.610869
PG01 -17101.396801 -13429.396549 -15606.531581    -51.696945
PG02  -6461.036672  14869.735804  21567.734298    101.387351
PG03 -13332.453251 -22169.889046   6142.057105     79.459421
PG05    -87.496616  23226.207720  12587.913025     -7.078917
PG06 -20573.463478   7434.103747  15115.229455    400.116921
PG07 -26101.944733  -5844.026477   2071.042333    184.029578
PG08   -144.755971 -19664.570512 -17732.563818   -102.902701
PG09 -17020.552738  -1602.101883  20300.138098    514.364719
PG10  14348.337305  -5038.391099 -21733.104889    186.709693
PG11 -12510.590962 -12863.930840 -20102.833827   -735.250710
PG12   9868.863005  24591.478014   2782.540394    330.751680
PG13  -9419.064447  21472.783929 -12584.647014    -94.022815
PG14  17971.070874 -19421.761800    102.201211    -97.150897
PG15   3685.003489  19028.296735 -18210.269214   -353.508299
PG16   2260.691070 -22644.656300  13174.810329     23.248771
PG17 -20401.511241  14041.636808  -9033.843844    -93.423817
PG18  -8338.719897 -15539.590338 -20370.449588     15.070985
PG19 -19554.755802  18010.257490  -2264.726626   -432.641050
PG20  18826.297732   9413.164736 -16394.976976    509.288386
PG21  26414.673267   2414.055014   -291.352280   -388.685347
PG22  -9650.760250 -24638.513784  -2138.411032   -408.066973
PG23  -8970.965994 -13560.732993  21231.427422   -216.535223
PG24  13908.486778  14420.307592 -17692.565797    -50.407727
PG25  16406.200399  15115.666360  14409.307710   -592.611841
PG26   8658.826213 -15478.945400  19717.541579   -133.275333
PG27  10772.413339 -22684.803708  -8309.324333    367.805823
PG28 -14644.387101    786.976104 -21522.464081    719.284936
PG29  14839.826631   4839.831383  21464.042363    441.763665
PG30 -25453.295151    646.428124  -7847.770606     68.704465
PG31  19706.369566  -7913.679875  16244.665168    118.310850
PG32  20057.139720 -14090.340331 -10080.656850   -502.623743
PJ01 -25608.136556  25430.470282  26916.894589   -241.469603
PJ02 -26499.287419  15132.372098 -24747.805561    -21.436301
PJ03 -25843.002285  32466.655020  -3130.815276    -14.288910
PR01  -9645.993558  15402.416649  17899.945951     26.905745
PR02  -2076.162717  25449.118839    207.881571    312.147092
PR03   6281.525141  18761.832307 -16078.764937    133.502818
PR04  10967.261179    575.453522 -23000.151532    262.755339
PR05   9090.320558 -17135.779829 -16572.876007    -15.997284
PR07  -6503.615342 -18340.693965  16513.031981    -38.741283
PR08 -10943.466977  -1304.733277  23061.670548     22.960479
PR09  -5243.532708 -15308.386434  19752.733594     25.801907
PR10 -18549.186989 -16462.777078   6122.650152     25.210438
PR11 -21250.257986  -8011.530141 -11652.890451    -29.969729
PR13   5673.750551  15021.387376 -19838.709523    -10.863852
PR14  18424.581509  16454.556007  -6322.875453     27.680986
PR15  21763.727635  10685.910817   8083.354547    -10.915286
PR16  12077.077553  -4539.910417  21998.128510     93.665716
PR17   9181.292629   7242.415661  22679.370004    136.052848
PR18  21425.383848  -3368.939395  13382.120136    197.333748
PR19  22294.055485 -11830.031604  -3682.095817    -53.574318
PR20   9007.686959 -13681.771442 -19527.897062   -339.694216
PR21  -9430.296848  -6995.715768 -22643.841254     14.319632
PR22 -22315.652713   4660.255432 -11580.206834    -46.838204
PR23 -20428.729050  13336.407081   7454.552317    156.510080
PR24  -7925.276013  13723.079978  19969.124335   -166.907402
PR26   9503.383260 -14036.916452 -19058.134424     22.828930
EOF
